BANDWAGON-2 OBJECT D    
1 62380U 24247D   26068.52261193  .00011259  00000+0  40119-3 0  9994
2 62380  44.9954 115.6710 0003488 351.1453   8.9368 15.29076102 67732
STARLINK-34532          
1 64607U 25137P   26068.17895874  .00027447  00000+0  93628-3 0  9996
2 64607  53.1610 347.7638 0000977  85.5250 274.5862 15.30169384 40511
